SL-3 R/B                
1 13403U 82079B   26058.23216601  .00007843  00000+0  31425-3 0  9998
2 13403  81.1457 205.4219 0024615 199.9596 160.0677 15.24612798376107
SL-14 R/B               
1 13553U 82092B   26058.27102138  .00000517  00000+0  55297-4 0  9997
2 13553  82.5710 151.1426 0019708 339.9806  42.1136 14.86654019327389
SL-3 R/B                
1 13819U 83010B   26058.27666749  .00018508  00000+0  37699-3 0  9990
2 13819  81.1045  15.0078 0018634  83.7827 276.5540 15.45921661356330
SL-3 R/B                
1 14208U 83075B   26058.27905217  .00012662  00000+0  33742-3 0  9990
2 14208  97.6138  62.4652 0019605 266.9263  92.9738 15.38121707328557
COSMOS 1536             
1 14699U 84013A   26058.21275250  .00006504  00000+0  26932-3 0  9999
2 14699  82.5449 118.2641 0013167 324.3387  35.6969 15.23667282271026
SL-14 R/B               
1 14820U 84027B   26058.25580966  .00000478  00000+0  51833-4 0  9990
2 14820  82.5381 254.8014 0018277  12.9635 347.2047 14.85963724246085
SL-8 R/B                
1 15483U 85006B   26058.09269452  .00000159  00000+0  61279-4 0  9991
2 15483  74.0437 280.6494 0018884 200.6561 276.6008 14.37776294152502
SL-12 R/B(2)            
1 15772U 85042D   26058.28468385  .00000027  00000+0  33368-4 0  9991
2 15772  71.1069 109.7132 0033773 145.1406 284.6229 14.21979218112916
SL-14 R/B               
1 15945U 85069B   26058.17643119  .00000557  00000+0  60190-4 0  9991
2 15945  82.5262  34.8188 0017595 223.8125 136.1697 14.86418514171276
SL-16 R/B               
1 16182U 85097B   26058.24634101  .00000207  00000+0  12775-3 0  9992
2 16182  71.0038 162.5387 0009800 271.6897 113.0354 14.16598429 85759
SL-14 R/B               
1 16496U 86006B   26058.08893939  .00000591  00000+0  60320-4 0  9995
2 16496  82.5238 269.7168 0075380 308.6225  50.8259 14.86798866147637
COSMOS 1743             
1 16719U 86034A   26058.10960154  .00036053  00000+0  48479-3 0  9993
2 16719  82.5312  84.9294 0002824 355.2112   4.9116 15.57712497178609
