CCSDS_OMM_VERS = 2.0
CREATION_DATE  = 
ORIGINATOR     = 

OBJECT_NAME    = SL-3 R/B
OBJECT_ID      = 1982-079B
CENTER_NAME    = EARTH
REF_FRAME      = TEME
TIME_SYSTEM    = UTC
MEAN_ELEMENT_THEORY = SGP/SGP4

EPOCH          = 2026-02-27T05:34:19.143264
MEAN_MOTION    = 15.24612798
ECCENTRICITY   = .00246159
INCLINATION    = 81.1457
RA_OF_ASC_NODE = 205.4219
ARG_OF_PERICENTER = 199.9596
MEAN_ANOMALY   = 160.0677

EPHEMERIS_TYPE = 0
CLASSIFICATION_TYPE = U
NORAD_CAT_ID   = 13403
ELEMENT_SET_NO = 999
REV_AT_EPOCH   = 37610
BSTAR          = .31424953E-3
MEAN_MOTION_DOT = .7843E-4
MEAN_MOTION_DDOT = 0

CCSDS_OMM_VERS = 2.0
CREATION_DATE  = 
ORIGINATOR     = 

OBJECT_NAME    = SL-14 R/B
OBJECT_ID      = 1982-092B
CENTER_NAME    = EARTH
REF_FRAME      = TEME
TIME_SYSTEM    = UTC
MEAN_ELEMENT_THEORY = SGP/SGP4

EPOCH          = 2026-02-27T06:30:16.247232
MEAN_MOTION    = 14.86654019
ECCENTRICITY   = .00197087
INCLINATION    = 82.5710
RA_OF_ASC_NODE = 151.1426
ARG_OF_PERICENTER = 339.9806
MEAN_ANOMALY   = 42.1136

EPHEMERIS_TYPE = 0
CLASSIFICATION_TYPE = U
NORAD_CAT_ID   = 13553
ELEMENT_SET_NO = 999
REV_AT_EPOCH   = 32738
BSTAR          = .55297295E-4
MEAN_MOTION_DOT = .517E-5
MEAN_MOTION_DDOT = 0

CCSDS_OMM_VERS = 2.0
CREATION_DATE  = 
ORIGINATOR     = 

OBJECT_NAME    = SL-3 R/B
OBJECT_ID      = 1983-010B
CENTER_NAME    = EARTH
REF_FRAME      = TEME
TIME_SYSTEM    = UTC
MEAN_ELEMENT_THEORY = SGP/SGP4

EPOCH          = 2026-02-27T06:38:24.071136
MEAN_MOTION    = 15.45921661
ECCENTRICITY   = .0018634
INCLINATION    = 81.1045
RA_OF_ASC_NODE = 15.0078
ARG_OF_PERICENTER = 83.7827
MEAN_ANOMALY   = 276.5540

EPHEMERIS_TYPE = 0
CLASSIFICATION_TYPE = U
NORAD_CAT_ID   = 13819
ELEMENT_SET_NO = 999
REV_AT_EPOCH   = 35633
BSTAR          = .37699238E-3
MEAN_MOTION_DOT = .18508E-3
MEAN_MOTION_DDOT = 0

CCSDS_OMM_VERS = 2.0
CREATION_DATE  = 
ORIGINATOR     = 

OBJECT_NAME    = SL-3 R/B
OBJECT_ID      = 1983-075B
CENTER_NAME    = EARTH
REF_FRAME      = TEME
TIME_SYSTEM    = UTC
MEAN_ELEMENT_THEORY = SGP/SGP4

EPOCH          = 2026-02-27T06:41:50.107488
MEAN_MOTION    = 15.38121707
ECCENTRICITY   = .00196056
INCLINATION    = 97.6138
RA_OF_ASC_NODE = 62.4652
ARG_OF_PERICENTER = 266.9263
MEAN_ANOMALY   = 92.9738

EPHEMERIS_TYPE = 0
CLASSIFICATION_TYPE = U
NORAD_CAT_ID   = 14208
ELEMENT_SET_NO = 999
REV_AT_EPOCH   = 32855
BSTAR          = .33741763E-3
MEAN_MOTION_DOT = .12662E-3
MEAN_MOTION_DDOT = 0

CCSDS_OMM_VERS = 2.0
CREATION_DATE  = 
ORIGINATOR     = 

OBJECT_NAME    = COSMOS 1536
OBJECT_ID      = 1984-013A
CENTER_NAME    = EARTH
REF_FRAME      = TEME
TIME_SYSTEM    = UTC
MEAN_ELEMENT_THEORY = SGP/SGP4

EPOCH          = 2026-02-27T05:06:21.816000
MEAN_MOTION    = 15.23667282
ECCENTRICITY   = .00131676
INCLINATION    = 82.5449
RA_OF_ASC_NODE = 118.2641
ARG_OF_PERICENTER = 324.3387
MEAN_ANOMALY   = 35.6969

EPHEMERIS_TYPE = 0
CLASSIFICATION_TYPE = U
NORAD_CAT_ID   = 14699
ELEMENT_SET_NO = 999
REV_AT_EPOCH   = 27102
BSTAR          = .26931608E-3
MEAN_MOTION_DOT = .6504E-4
MEAN_MOTION_DDOT = 0

CCSDS_OMM_VERS = 2.0
CREATION_DATE  = 
ORIGINATOR     = 

OBJECT_NAME    = SL-14 R/B
OBJECT_ID      = 1984-027B
CENTER_NAME    = EARTH
REF_FRAME      = TEME
TIME_SYSTEM    = UTC
MEAN_ELEMENT_THEORY = SGP/SGP4

EPOCH          = 2026-02-27T06:08:21.954624
MEAN_MOTION    = 14.85963724
ECCENTRICITY   = .00182774
INCLINATION    = 82.5381
RA_OF_ASC_NODE = 254.8014
ARG_OF_PERICENTER = 12.9635
MEAN_ANOMALY   = 347.2047

EPHEMERIS_TYPE = 0
CLASSIFICATION_TYPE = U
NORAD_CAT_ID   = 14820
ELEMENT_SET_NO = 999
REV_AT_EPOCH   = 24608
BSTAR          = .51833253E-4
MEAN_MOTION_DOT = .478E-5
MEAN_MOTION_DDOT = 0

CCSDS_OMM_VERS = 2.0
CREATION_DATE  = 
ORIGINATOR     = 

OBJECT_NAME    = SL-8 R/B
OBJECT_ID      = 1985-006B
CENTER_NAME    = EARTH
REF_FRAME      = TEME
TIME_SYSTEM    = UTC
MEAN_ELEMENT_THEORY = SGP/SGP4

EPOCH          = 2026-02-27T02:13:28.806528
MEAN_MOTION    = 14.37776294
ECCENTRICITY   = .0018884
INCLINATION    = 74.0437
RA_OF_ASC_NODE = 280.6494
ARG_OF_PERICENTER = 200.6561
MEAN_ANOMALY   = 276.6008

EPHEMERIS_TYPE = 0
CLASSIFICATION_TYPE = U
NORAD_CAT_ID   = 15483
ELEMENT_SET_NO = 999
REV_AT_EPOCH   = 15250
BSTAR          = .61279492E-4
MEAN_MOTION_DOT = .159E-5
MEAN_MOTION_DDOT = 0

CCSDS_OMM_VERS = 2.0
CREATION_DATE  = 
ORIGINATOR     = 

OBJECT_NAME    = SL-12 R/B(2)
OBJECT_ID      = 1985-042D
CENTER_NAME    = EARTH
REF_FRAME      = TEME
TIME_SYSTEM    = UTC
MEAN_ELEMENT_THEORY = SGP/SGP4

EPOCH          = 2026-02-27T06:49:56.684640
MEAN_MOTION    = 14.21979218
ECCENTRICITY   = .00337732
INCLINATION    = 71.1069
RA_OF_ASC_NODE = 109.7132
ARG_OF_PERICENTER = 145.1406
MEAN_ANOMALY   = 284.6229

EPHEMERIS_TYPE = 0
CLASSIFICATION_TYPE = U
NORAD_CAT_ID   = 15772
ELEMENT_SET_NO = 999
REV_AT_EPOCH   = 11291
BSTAR          = .33368027E-4
MEAN_MOTION_DOT = .27E-6
MEAN_MOTION_DDOT = 0

CCSDS_OMM_VERS = 2.0
CREATION_DATE  = 
ORIGINATOR     = 

OBJECT_NAME    = SL-14 R/B
OBJECT_ID      = 1985-069B
CENTER_NAME    = EARTH
REF_FRAME      = TEME
TIME_SYSTEM    = UTC
MEAN_ELEMENT_THEORY = SGP/SGP4

EPOCH          = 2026-02-27T04:14:03.654816
MEAN_MOTION    = 14.86418514
ECCENTRICITY   = .00175955
INCLINATION    = 82.5262
RA_OF_ASC_NODE = 34.8188
ARG_OF_PERICENTER = 223.8125
MEAN_ANOMALY   = 136.1697

EPHEMERIS_TYPE = 0
CLASSIFICATION_TYPE = U
NORAD_CAT_ID   = 15945
ELEMENT_SET_NO = 999
REV_AT_EPOCH   = 17127
BSTAR          = .60190319E-4
MEAN_MOTION_DOT = .557E-5
MEAN_MOTION_DDOT = 0

CCSDS_OMM_VERS = 2.0
CREATION_DATE  = 
ORIGINATOR     = 

OBJECT_NAME    = SL-16 R/B
OBJECT_ID      = 1985-097B
CENTER_NAME    = EARTH
REF_FRAME      = TEME
TIME_SYSTEM    = UTC
MEAN_ELEMENT_THEORY = SGP/SGP4

EPOCH          = 2026-02-27T05:54:43.863264
MEAN_MOTION    = 14.16598429
ECCENTRICITY   = .00098007
INCLINATION    = 71.0038
RA_OF_ASC_NODE = 162.5387
ARG_OF_PERICENTER = 271.6897
MEAN_ANOMALY   = 113.0354

EPHEMERIS_TYPE = 0
CLASSIFICATION_TYPE = U
NORAD_CAT_ID   = 16182
ELEMENT_SET_NO = 999
REV_AT_EPOCH   = 8575
BSTAR          = .12775104E-3
MEAN_MOTION_DOT = .207E-5
MEAN_MOTION_DDOT = 0

CCSDS_OMM_VERS = 2.0
CREATION_DATE  = 
ORIGINATOR     = 

OBJECT_NAME    = SL-14 R/B
OBJECT_ID      = 1986-006B
CENTER_NAME    = EARTH
REF_FRAME      = TEME
TIME_SYSTEM    = UTC
MEAN_ELEMENT_THEORY = SGP/SGP4

EPOCH          = 2026-02-27T02:08:04.363296
MEAN_MOTION    = 14.86798866
ECCENTRICITY   = .007538
INCLINATION    = 82.5238
RA_OF_ASC_NODE = 269.7168
ARG_OF_PERICENTER = 308.6225
MEAN_ANOMALY   = 50.8259

EPHEMERIS_TYPE = 0
CLASSIFICATION_TYPE = U
NORAD_CAT_ID   = 16496
ELEMENT_SET_NO = 999
REV_AT_EPOCH   = 14763
BSTAR          = .60320292E-4
MEAN_MOTION_DOT = .591E-5
MEAN_MOTION_DDOT = 0

CCSDS_OMM_VERS = 2.0
CREATION_DATE  = 
ORIGINATOR     = 

OBJECT_NAME    = COSMOS 1743
OBJECT_ID      = 1986-034A
CENTER_NAME    = EARTH
REF_FRAME      = TEME
TIME_SYSTEM    = UTC
MEAN_ELEMENT_THEORY = SGP/SGP4

EPOCH          = 2026-02-27T02:37:49.573056
MEAN_MOTION    = 15.57712497
ECCENTRICITY   = .00028244
INCLINATION    = 82.5312
RA_OF_ASC_NODE = 84.9294
ARG_OF_PERICENTER = 355.2112
MEAN_ANOMALY   = 4.9116

EPHEMERIS_TYPE = 0
CLASSIFICATION_TYPE = U
NORAD_CAT_ID   = 16719
ELEMENT_SET_NO = 999
REV_AT_EPOCH   = 17860
BSTAR          = .48478701E-3
MEAN_MOTION_DOT = .36053E-3
MEAN_MOTION_DDOT = 0

